NORAD_CAT_ID,OBJECT_NAME,OBJECT_TYPE,EPOCH,MEAN_MOTION,ECCENTRICITY,INCLINATION,RA_OF_ASC_NODE,ARG_OF_PERICENTER,MEAN_ANOMALY,BSTAR,MEAN_MOTION_DOT,MEAN_MOTION_DDOT,TLE_LINE0,TLE_LINE1,TLE_LINE2,SEMIMAJOR_AXIS,PERIOD,APOGEE,PERIGEE,DECAYED
53728.0,STARLINK-4640,PAYLOAD,2024-08-18 13:04:14,15.0884831,0.0001526,53.2158,284.5762,88.1355,271.9812,0.00027567,4.103e-05,0.0,0 STARLINK-4640,1 53728U 22107AE  24231.54461053  .00004103  00000-0  27567-3 0  9995,2 53728  53.2158 284.5762 0001526  88.1355 271.9812 15.08848310108185,6917.855,95.437,540.776,538.664,0.0
53728.0,STARLINK-4640,PAYLOAD,2024-08-19 12:55:01,15.08837823,0.000152,53.2155,280.1154,101.4974,258.6188,2.9185e-05,1.76e-06,0.0,0 STARLINK-4640,1 53728U 22107AE  24232.53821403  .00000176  00000-0  29185-4 0  9999,2 53728  53.2155 280.1154 0001520 101.4974 258.6188 15.08837823108331,6917.887,95.438,540.804,538.701,0.0
53728.0,STARLINK-4640,PAYLOAD,2024-08-20 07:59:39,15.08844511,0.0001486,53.2153,276.5474,100.5089,259.607,8.9231e-05,1.133e-05,0.0,0 STARLINK-4640,1 53728U 22107AE  24233.33309042  .00001133  00000-0  89231-4 0  9990,2 53728  53.2153 276.5474 0001486 100.5089 259.6070 15.08844511109054,6917.867,95.437,540.76,538.704,0.0
53728.0,STARLINK-4640,PAYLOAD,2024-08-21 09:25:49,15.08837631,0.000139,53.2161,271.79,97.5752,262.5398,7.0864e-05,8.4e-06,0.0,0 STARLINK-4640,1 53728U 22107AE  24234.39293304  .00000840  00000-0  70864-4 0  9996,2 53728  53.2161 271.7900 0001390  97.5752 262.5398 15.08837631108612,6917.888,95.438,540.714,538.791,0.0
